[{"OBJECT_NAME":"MKA-PN 1","OBJECT_ID":"2012-039E","EPOCH":"2026-03-09T22:22:36.240960","MEAN_MOTION":14.25388825,"ECCENTRICITY":0.00124264,"INCLINATION":98.958,"RA_OF_ASC_NODE":183.7893,"ARG_OF_PERICENTER":95.296,"MEAN_ANOMALY":264.9637,"EPHEMERIS_TYPE":0,"CLASSIFICATION_TYPE":"U","NORAD_CAT_ID":38711,"ELEMENT_SET_NO":999,"REV_AT_EPOCH":70870,"BSTAR":0.00011675607,"MEAN_MOTION_DOT":2.29e-6,"MEAN_MOTION_DDOT":0},{"OBJECT_NAME":"CZ-6A DEB","OBJECT_ID":"2022-151AEM","EPOCH":"2026-03-08T00:38:09.882528","MEAN_MOTION":14.22356458,"ECCENTRICITY":0.00024025,"INCLINATION":98.8124,"RA_OF_ASC_NODE":92.2136,"ARG_OF_PERICENTER":199.5978,"MEAN_ANOMALY":160.5107,"EPHEMERIS_TYPE":0,"CLASSIFICATION_TYPE":"U","NORAD_CAT_ID":56613,"ELEMENT_SET_NO":999,"REV_AT_EPOCH":15384,"BSTAR":0.00075284719,"MEAN_MOTION_DOT":1.63e-5,"MEAN_MOTION_DDOT":0}]
